GLOBALSTAR M023         
1 25621U 99004A   25201.59698571 -.00000176  00000+0 -40153-3 0  9999
2 25621  52.0127 311.7089 0010138 196.0764 177.3021 12.62503512219954
GLOBALSTAR M040         
1 25622U 99004B   25201.58544263 -.00000065  00000+0  21475-3 0  9999
2 25622  51.9936 315.9490 0001556 112.2563 261.0829 12.62013187219472
GLOBALSTAR M036         
1 25623U 99004C   25201.33861729 -.00000134  00000+0 -74914-3 0  9996
2 25623  51.9954 152.9405 0011074 112.6790  48.6303 11.86607839182912
GLOBALSTAR M038         
1 25624U 99004D   25201.59877802 -.00000083  00000+0  99616-4 0  9993
2 25624  51.9997 335.3510 0002614 119.3310 348.1585 12.32529276206496
GLOBALSTAR M041         
1 25650U 99012B   25201.37825692 -.00000083  00000+0  25348-4 0  9998
2 25650  52.0027  83.1380 0002148  34.0335 326.0639 11.96681736182257
GLOBALSTAR M046         
1 25651U 99012C   25201.59361972 -.00000021  00000+0  74876-3 0  9990
2 25651  52.0038 149.0015 0002359 328.9972 202.0009 12.09410249187706
GLOBALSTAR M037         
1 25652U 99012D   25201.45356725 -.00000064  00000+0  22063-3 0  9994
2 25652  52.0007  82.7523 0001364 275.7827 254.8578 12.62448976215472
